{"fetched_at":"2026-07-13T18:17:00.685Z","source":"https://celestrak.org/NORAD/elements/gp.php?NAME=ICEYE&FORMAT=JSON","constellation":"iceye","records":[{"OBJECT_NAME":"ICEYE-X72","OBJECT_ID":"2026-067CS","EPOCH":"2026-07-13T10:20:02.480064","CLASSIFICATION_TYPE":"U","MEAN_MOTION":14.95634716,"ECCENTRICITY":0.0001305,"INCLINATION":97.7625,"RA_OF_ASC_NODE":152.4184,"ARG_OF_PERICENTER":161.5354,"MEAN_ANOMALY":198.5915,"EPHEMERIS_TYPE":0,"NORAD_CAT_ID":68504,"ELEMENT_SET_NO":999,"REV_AT_EPOCH":1564,"BSTAR":0.0094643,"MEAN_MOTION_DOT":0.00106676,"MEAN_MOTION_DDOT":0},{"OBJECT_NAME":"ICEYE-X78","OBJECT_ID":"2026-100R","EPOCH":"2026-07-13T07:14:39.103872","CLASSIFICATION_TYPE":"U","MEAN_MOTION":14.91810209,"ECCENTRICITY":0.0003694,"INCLINATION":97.7337,"RA_OF_ASC_NODE":91.2699,"ARG_OF_PERICENTER":59.0882,"MEAN_ANOMALY":301.0699,"EPHEMERIS_TYPE":0,"NORAD_CAT_ID":68995,"ELEMENT_SET_NO":999,"REV_AT_EPOCH":1059,"BSTAR":0.000035973,"MEAN_MOTION_DOT":0.00000308,"MEAN_MOTION_DDOT":0},{"OBJECT_NAME":"ICEYE-X82","OBJECT_ID":"2026-100S","EPOCH":"2026-07-13T09:22:09.922368","CLASSIFICATION_TYPE":"U","MEAN_MOTION":14.914195,"ECCENTRICITY":0.0005763,"INCLINATION":97.7333,"RA_OF_ASC_NODE":91.3026,"ARG_OF_PERICENTER":68.3795,"MEAN_ANOMALY":291.8037,"EPHEMERIS_TYPE":0,"NORAD_CAT_ID":68996,"ELEMENT_SET_NO":999,"REV_AT_EPOCH":1060,"BSTAR":0.00015221,"MEAN_MOTION_DOT":0.00001466,"MEAN_MOTION_DDOT":0}]}
