ICEYE-X72               
1 68504U 26067CS  26194.43058426  .00106676  00000+0  94643-2 0  9991
2 68504  97.7625 152.4184 0001305 161.5354 198.5915 14.95634716 15640
ICEYE-X78               
1 68995U 26100R   26194.30184148  .00000308  00000+0  35973-4 0  9998
2 68995  97.7337  91.2699 0003694  59.0882 301.0699 14.91810209 10593
ICEYE-X82               
1 68996U 26100S   26194.39039262  .00001466  00000+0  15221-3 0  9993
2 68996  97.7333  91.3026 0005763  68.3795 291.8037 14.91419500 10603
